start=new Date('2023-03-23T00:00:00.000Z').valueOf();
sats=[{"OBJECT_TYPE":"PAYLOAD","BSTAR":"0.00193950000000","COUNTRY_CODE":"US","EPHEMERIS_TYPE":"0","SITE":"AFETR","NORAD_CAT_ID":"47620","SEMIMAJOR_AXIS":"6925.154","OBJECT_NAME":"STARLINK-1528","OBJECT_ID":"2021-012A","LAUNCH_DATE":"2021-02-16","TLE_LINE2":"2 47620  53.0516 254.3409 0001030  66.3690 293.7407 15.06463435116201","EPOCH":"2023-03-22T11:29:26.626560","MEAN_MOTION_DDOT":"0.0000000000000","DECAY_DATE":null,"TLE_LINE1":"1 47620U 21012A   23081.47878040  .00028775  00000-0  19395-2 0  9995","GP_ID":"228633125","RCS_SIZE":"LARGE","ARG_OF_PERICENTER":"66.3690","REV_AT_EPOCH":"11620","MEAN_ELEMENT_THEORY":"SGP4","PERIOD":"95.588","ECCENTRICITY":"0.00010300","CENTER_NAME":"EARTH","APOAPSIS":"547.732","MEAN_MOTION_DOT":"0.00028775","INCLINATION":"53.0516","RA_OF_ASC_NODE":"254.3409","TIME_SYSTEM":"UTC","ELEMENT_SET_NO":"999","CLASSIFICATION_TYPE":"U","REF_FRAME":"TEME","MEAN_MOTION":"15.06463435","MEAN_ANOMALY":"293.7407","PERIAPSIS":"546.306","FILE":"3867369"},{"ECCENTRICITY":"0.00010380","MEAN_ELEMENT_THEORY":"SGP4","PERIOD":"95.590","TLE_LINE1":"1 47621U 21012B   23081.73682066  .00023766  00000-0  16072-2 0  9990","GP_ID":"228639403","RCS_SIZE":"LARGE","ARG_OF_PERICENTER":"67.2998","REV_AT_EPOCH":"11624","EPOCH":"2023-03-22T17:41:01.305024","MEAN_MOTION_DDOT":"0.0000000000000","DECAY_DATE":null,"LAUNCH_DATE":"2021-02-16","OBJECT_ID":"2021-012B","TLE_LINE2":"2 47621  53.0546 253.1814 0001038  67.2998 292.8101 15.06441385116246","OBJECT_NAME":"STARLINK-1609","OBJECT_TYPE":"PAYLOAD","COUNTRY_CODE":"US","BSTAR":"0.00160720000000","EPHEMERIS_TYPE":"0","SEMIMAJOR_AXIS":"6925.222","SITE":"AFETR","NORAD_CAT_ID":"47621","FILE":"3867713","PERIAPSIS":"546.368","CLASSIFICATION_TYPE":"U","MEAN_MOTION":"15.06441385","REF_FRAME":"TEME","MEAN_ANOMALY":"292.8101","ELEMENT_SET_NO":"999","TIME_SYSTEM":"UTC","INCLINATION":"53.0546","RA_OF_ASC_NODE":"253.1814","APOAPSIS":"547.806","MEAN_MOTION_DOT":"0.00023766","CENTER_NAME":"EARTH"},{"OBJECT_NAME":"STARLINK-1645","LAUNCH_DATE":"2021-02-16","OBJECT_ID":"2021-012C","TLE_LINE2":"2 47622  53.0509 254.3862 0000936  82.1697 277.9398 15.06424295116209","OBJECT_TYPE":"PAYLOAD","BSTAR":"0.00167070000000","COUNTRY_CODE":"US","EPHEMERIS_TYPE":"0","SEMIMAJOR_AXIS":"6925.274","SITE":"AFETR","NORAD_CAT_ID":"47622","MEAN_ELEMENT_THEORY":"SGP4","PERIOD":"95.591","ECCENTRICITY":"0.00009360","EPOCH":"2023-03-22T11:12:12.189600","MEAN_MOTION_DDOT":"0.0000000000000","DECAY_DATE":null,"TLE_LINE1":"1 47622U 21012C   23081.46680775  .00024708  00000-0  16707-2 0  9998","GP_ID":"228633138","RCS_SIZE":"LARGE","ARG_OF_PERICENTER":"82.1697","REV_AT_EPOCH":"11620","INCLINATION":"53.0509","RA_OF_ASC_NODE":"254.3862","TIME_SYSTEM":"UTC","CENTER_NAME":"EARTH","APOAPSIS":"547.787","MEAN_MOTION_DOT":"0.00024708","PERIAPSIS":"546.491","FILE":"3867370","ELEMENT_SET_NO":"999","CLASSIFICATION_TYPE":"U","MEAN_MOTION":"15.06424295","REF_FRAME":"TEME","MEAN_ANOMALY":"277.9398"},{"LAUNCH_DATE":"2021-02-16","OBJECT_ID":"2021-012D","TLE_LINE2":"2 47623  53.0524 188.4451 0001470  82.8821 277.2335 15.06419497117155","OBJECT_NAME":"STARLINK-1655","OBJECT_TYPE":"PAYLOAD","COUNTRY_CODE":"US","BSTAR":"0.00278950000000","EPHEMERIS_TYPE":"0","SEMIMAJOR_AXIS":"6925.289","SITE":"AFETR","NORAD_CAT_ID":"47623","ECCENTRICITY":"0.00014700","MEAN_ELEMENT_THEORY":"SGP4","PERIOD":"95.591","GP_ID":"228639410","TLE_LINE1":"1 47623U 21012D   23081.67833476  .00041536  00000-0  27895-2 0  9998","ARG_OF_PERICENTER":"82.8821","RCS_SIZE":"LARGE","REV_AT_EPOCH":"11715","EPOCH":"2023-03-22T16:16:48.123264","DECAY_DATE":null,"MEAN_MOTION_DDOT":"0.0000000000000","TIME_SYSTEM":"UTC","INCLINATION":"53.0524","RA_OF_ASC_NODE":"188.4451","APOAPSIS":"548.172","MEAN_MOTION_DOT":"0.00041536","CENTER_NAME":"EARTH","FILE":"3867714","PERIAPSIS":"546.136","CLASSIFICATION_TYPE":"U","MEAN_MOTION":"15.06419497","REF_FRAME":"TEME","MEAN_ANOMALY":"277.2335","ELEMENT_SET_NO":"999"},{"MEAN_ELEMENT_THEORY":"SGP4","PERIOD":"95.589","ECCENTRICITY":"0.00013730","EPOCH":"2023-03-22T17:43:42.105792","MEAN_MOTION_DDOT":"0.0000000000000","DECAY_DATE":null,"TLE_LINE1":"1 47624U 21012E   23081.73868178  .00024950  00000-0  16858-2 0  9991","GP_ID":"228638917","REV_AT_EPOCH":"11652","ARG_OF_PERICENTER":"64.2404","RCS_SIZE":"LARGE","OBJECT_NAME":"STARLINK-1669","TLE_LINE2":"2 47624  53.0532 233.1745 0001373  64.2404 295.8726 15.06448224116522","OBJECT_ID":"2021-012E","LAUNCH_DATE":"2021-02-16","COUNTRY_CODE":"US","BSTAR":"0.00168580000000","OBJECT_TYPE":"PAYLOAD","NORAD_CAT_ID":"47624","SITE":"AFETR","SEMIMAJOR_AXIS":"6925.201","EPHEMERIS_TYPE":"0","PERIAPSIS":"546.115","FILE":"3867714","ELEMENT_SET_NO":"999","MEAN_MOTION":"15.06448224","REF_FRAME":"TEME","CLASSIFICATION_TYPE":"U","MEAN_ANOMALY":"295.8726","INCLINATION":"53.0532","RA_OF_ASC_NODE":"233.1745","TIME_SYSTEM":"UTC","CENTER_NAME":"EARTH","MEAN_MOTION_DOT":"0.00024950","APOAPSIS":"548.017"},{"MEAN_ANOMALY":"277.9059","CLASSIFICATION_TYPE":"U","MEAN_MOTION":"15.06433180","REF_FRAME":"TEME","ELEMENT_SET_NO":"999","FILE":"3867715","PERIAPSIS":"546.277","APOAPSIS":"547.947","MEAN_MOTION_DOT":"0.00026699","CENTER_NAME":"EARTH","TIME_SYSTEM":"UTC","RA_OF_ASC_NODE":"253.1584","INCLINATION":"53.0539","RCS_SIZE":"LARGE","ARG_OF_PERICENTER":"82.2067","REV_AT_EPOCH":"11624","GP_ID":"228639432","TLE_LINE1":"1 47625U 21012F   23081.73955518  .00026699  00000-0  18029-2 0  9991","MEAN_MOTION_DDOT":"0.0000000000000","DECAY_DATE":null,"EPOCH":"2023-03-22T17:44:57.567552","ECCENTRICITY":"0.00012060","PERIOD":"95.590","MEAN_ELEMENT_THEORY":"SGP4","EPHEMERIS_TYPE":"0","SITE":"AFETR","NORAD_CAT_ID":"47625","SEMIMAJOR_AXIS":"6925.247","OBJECT_TYPE":"PAYLOAD","BSTAR":"0.00180290000000","COUNTRY_CODE":"US","LAUNCH_DATE":"2021-02-16","OBJECT_ID":"2021-012F","TLE_LINE2":"2 47625  53.0539 253.1584 0001206  82.2067 277.9059 15.06433180116247","OBJECT_NAME":"STARLINK-1704"},{"TLE_LINE1":"1 47626U 21012G   23081.79209610  .00022024  00000-0  14909-2 0  9994","GP_ID":"228641840","REV_AT_EPOCH":"11625","ARG_OF_PERICENTER":"85.7890","RCS_SIZE":"LARGE","EPOCH":"2023-03-22T19:00:37.103040","DECAY_DATE":null,"MEAN_MOTION_DDOT":"0.0000000000000","ECCENTRICITY":"0.00013450","MEAN_ELEMENT_THEORY":"SGP4","PERIOD":"95.589","COUNTRY_CODE":"US","BSTAR":"0.00149090000000","OBJECT_TYPE":"PAYLOAD","SEMIMAJOR_AXIS":"6925.200","SITE":"AFETR","NORAD_CAT_ID":"47626","EPHEMERIS_TYPE":"0","TLE_LINE2":"2 47626  53.0518 252.9369 0001345  85.7890 274.3253 15.06448467116251","OBJECT_ID":"2021-012G","LAUNCH_DATE":"2021-02-16","OBJECT_NAME":"STARLINK-1761","REF_FRAME":"TEME","MEAN_MOTION":"15.06448467","CLASSIFICATION_TYPE":"U","MEAN_ANOMALY":"274.3253","ELEMENT_SET_NO":"999","FILE":"3867806","PERIAPSIS":"546.134","MEAN_MOTION_DOT":"0.00022024","APOAPSIS":"547.996","CENTER_NAME":"EARTH","TIME_SYSTEM":"UTC","INCLINATION":"53.0518","RA_OF_ASC_NODE":"252.9369"},{"EPHEMERIS_TYPE":"0","NORAD_CAT_ID":"47627","SITE":"AFETR","SEMIMAJOR_AXIS":"6925.390","OBJECT_TYPE":"PAYLOAD","BSTAR":"0.00082361000000","COUNTRY_CODE":"US","OBJECT_ID":"2021-012H","LAUNCH_DATE":"2021-02-16","TLE_LINE2":"2 47627  53.0517 161.4631 0001669  77.2065 282.9111 15.06386539117458","OBJECT_NAME":"STARLINK-1972","ARG_OF_PERICENTER":"77.2065","RCS_SIZE":"LARGE","REV_AT_EPOCH":"11745","TLE_LINE1":"1 47627U 21012H   23081.00657502  .00012003  00000-0  82361-3 0  9990","GP_ID":"228625146","DECAY_DATE":null,"MEAN_MOTION_DDOT":"0.0000000000000","EPOCH":"2023-03-22T00:09:28.081728","ECCENTRICITY":"0.00016690","PERIOD":"95.593","MEAN_ELEMENT_THEORY":"SGP4","APOAPSIS":"548.411","MEAN_MOTION_DOT":"0.00012003","CENTER_NAME":"EARTH","TIME_SYSTEM":"UTC","RA_OF_ASC_NODE":"161.4631","INCLINATION":"53.0517","MEAN_ANOMALY":"282.9111","CLASSIFICATION_TYPE":"U","REF_FRAME":"TEME","MEAN_MOTION":"15.06386539","ELEMENT_SET_NO":"999","FILE":"3867015","PERIAPSIS":"546.099"},{"ECCENTRICITY":"0.00013670","MEAN_ELEMENT_THEORY":"SGP4","PERIOD":"95.589","GP_ID":"228639423","TLE_LINE1":"1 47628U 21012J   23081.76167209  .00026255  00000-0  17728-2 0  9992","RCS_SIZE":"LARGE","ARG_OF_PERICENTER":"72.5997","REV_AT_EPOCH":"11624","EPOCH":"2023-03-22T18:16:48.468576","MEAN_MOTION_DDOT":"0.0000000000000","DECAY_DATE":null,"OBJECT_ID":"2021-012J","LAUNCH_DATE":"2021-02-16","TLE_LINE2":"2 47628  53.0532 253.0586 0001367  72.5997 287.5141 15.06444040116242","OBJECT_NAME":"STARLINK-1973","OBJECT_TYPE":"PAYLOAD","BSTAR":"0.00177280000000","COUNTRY_CODE":"US","EPHEMERIS_TYPE":"0","SITE":"AFETR","SEMIMAJOR_AXIS":"6925.214","NORAD_CAT_ID":"47628","FILE":"3867715","PERIAPSIS":"546.132","CLASSIFICATION_TYPE":"U","REF_FRAME":"TEME","MEAN_MOTION":"15.06444040","MEAN_ANOMALY":"287.5141","ELEMENT_SET_NO":"999","TIME_SYSTEM":"UTC","INCLINATION":"53.0532","RA_OF_ASC_NODE":"253.0586","APOAPSIS":"548.025","MEAN_MOTION_DOT":"0.00026255","CENTER_NAME":"EARTH"},{"APOAPSIS":"548.226","MEAN_MOTION_DOT":"0.00021089","CENTER_NAME":"EARTH","TIME_SYSTEM":"UTC","INCLINATION":"53.0516","RA_OF_ASC_NODE":"134.6389","CLASSIFICATION_TYPE":"U","REF_FRAME":"TEME","MEAN_MOTION":"15.06380208","MEAN_ANOMALY":"275.5712","ELEMENT_SET_NO":"999","FILE":"3867372","PERIAPSIS":"546.322","OBJECT_TYPE":"PAYLOAD","BSTAR":"0.00143120000000","COUNTRY_CODE":"US","EPHEMERIS_TYPE":"0","NORAD_CAT_ID":"47629","SITE":"AFETR","SEMIMAJOR_AXIS":"6925.409","OBJECT_ID":"2021-012K","LAUNCH_DATE":"2021-02-16","TLE_LINE2":"2 47629  53.0516 134.6389 0001375  84.5434 275.5712 15.06380208117874","OBJECT_NAME":"STARLINK-1974","TLE_LINE1":"1 47629U 21012K   23081.41247321  .00021089  00000-0  14312-2 0  9995","GP_ID":"228633172","RCS_SIZE":"LARGE","ARG_OF_PERICENTER":"84.5434","REV_AT_EPOCH":"11787","EPOCH":"2023-03-22T09:53:57.685344","DECAY_DATE":null,"MEAN_MOTION_DDOT":"0.0000000000000","ECCENTRICITY":"0.00013750","MEAN_ELEMENT_THEORY":"SGP4","PERIOD":"95.593"}];
